[{"OBJECT_NAME":"STARLINK-2628","OBJECT_ID":"2021-038G","EPOCH":"2026-03-09T22:51:58.687776","MEAN_MOTION":15.30188023,"ECCENTRICITY":0.00013012,"INCLINATION":53.1587,"RA_OF_ASC_NODE":356.9227,"ARG_OF_PERICENTER":123.2716,"MEAN_ANOMALY":236.8409,"EPHEMERIS_TYPE":0,"CLASSIFICATION_TYPE":"U","NORAD_CAT_ID":48359,"ELEMENT_SET_NO":999,"REV_AT_EPOCH":26711,"BSTAR":0.00021848604,"MEAN_MOTION_DOT":6.115e-5,"MEAN_MOTION_DDOT":0},{"OBJECT_NAME":"TIANMU-1 10","OBJECT_ID":"2023-101D","EPOCH":"2026-03-09T23:06:46.939392","MEAN_MOTION":15.2921896,"ECCENTRICITY":0.00069292,"INCLINATION":97.2749,"RA_OF_ASC_NODE":122.1027,"ARG_OF_PERICENTER":133.6162,"MEAN_ANOMALY":226.5654,"EPHEMERIS_TYPE":0,"CLASSIFICATION_TYPE":"U","NORAD_CAT_ID":57402,"ELEMENT_SET_NO":999,"REV_AT_EPOCH":14647,"BSTAR":0.00032238884,"MEAN_MOTION_DOT":9.075e-5,"MEAN_MOTION_DDOT":0}]
